{
    "links": {
        "self": "http://www.neowsapp.com/rest/v1/neo/3739222?api_key=iIulBulltgU6a56xZRHN4H3l9WmuAYTsLGpBGhQ2"
    },
    "id": "3739222",
    "neo_reference_id": "3739222",
    "name": "(2016 AT8)",
    "designation": "2016 AT8",
    "nasa_jpl_url": "http://ssd.jpl.nasa.gov/sbdb.cgi?sstr=3739222",
    "absolute_magnitude_h": 23.9,
    "estimated_diameter": {
        "kilometers": {
            "estimated_diameter_min": 0.04411182,
            "estimated_diameter_max": 0.0986370281
        },
        "meters": {
            "estimated_diameter_min": 44.1118199997,
            "estimated_diameter_max": 98.6370281305
        },
        "miles": {
            "estimated_diameter_min": 0.0274098057,
            "estimated_diameter_max": 0.0612901888
        },
        "feet": {
            "estimated_diameter_min": 144.7238235278,
            "estimated_diameter_max": 323.6123073718
        }
    },
    "is_potentially_hazardous_asteroid": false,
    "close_approach_data": [
        {
            "close_approach_date": "2012-04-08",
            "close_approach_date_full": "2012-Apr-08 06:42",
            "epoch_date_close_approach": 1333867320000,
            "relative_velocity": {
                "kilometers_per_second": "6.0606929956",
                "kilometers_per_hour": "21818.4947840577",
                "miles_per_hour": "13557.1641617941"
            },
            "miss_distance": {
                "astronomical": "0.4166671056",
                "lunar": "162.0835040784",
                "kilometers": "62332511.496825072",
                "miles": "38731626.6347351136"
            },
            "orbiting_body": "Earth"
        },
        {
            "close_approach_date": "2015-12-21",
            "close_approach_date_full": "2015-Dec-21 03:46",
            "epoch_date_close_approach": 1450669560000,
            "relative_velocity": {
                "kilometers_per_second": "4.0406742026",
                "kilometers_per_hour": "14546.427129229",
                "miles_per_hour": "9038.5841237145"
            },
            "miss_distance": {
                "astronomical": "0.177859074",
                "lunar": "69.187179786",
                "kilometers": "26607338.63057238",
                "miles": "16533033.578083644"
            },
            "orbiting_body": "Earth"
        }
    ],
    "orbital_data": {
        "orbit_id": "5",
        "orbit_determination_date": "2017-04-06 08:29:26",
        "first_observation_date": "2016-01-04",
        "last_observation_date": "2016-01-30",
        "data_arc_in_days": 26,
        "observations_used": 20,
        "orbit_uncertainty": "7",
        "minimum_orbit_intersection": ".147204",
        "jupiter_tisserand_invariant": "5.157",
        "epoch_osculation": "2459000.5",
        "eccentricity": ".1255946264492231",
        "semi_major_axis": "1.239946941196489",
        "inclination": "7.217460320806575",
        "ascending_node_longitude": "107.9949966524622",
        "orbital_period": "504.3163859685035",
        "perihelion_distance": "1.084216268300059",
        "perihelion_argument": "284.7093977772568",
        "aphelion_distance": "1.395677614092919",
        "perihelion_time": "2458824.085055311961",
        "mean_anomaly": "125.9316212098262",
        "mean_motion": ".7138376027751822",
        "equinox": "J2000",
        "orbit_class": {
            "orbit_class_type": "AMO",
            "orbit_class_description": "Near-Earth asteroid orbits similar to that of 1221 Amor",
            "orbit_class_range": "1.017 AU < q (perihelion) < 1.3 AU"
        }
    },
    "is_sentry_object": false
}